satname,norad_id,inclination_deg,eccentricity,mean_motion_rev_per_day,perigee_km,apogee_km,l1,l2
STARLINK-1297,45395,53.0555,0.0001182,15.38882977,448.6042284831992,450.2182608882422,1 45395U 20019AM  26022.58337963  .01390572  00000+0  32350-1 0  9994,2 45395  53.0555 351.7085 0001182  98.8134 356.0052 15.38882977  5830
STARLINK-1307,45397,53.0579,0.0001543,15.41958116,439.2786470288411,441.38282617235654,1 45397U 20019AP  26022.58337963  .01194329  00000+0  25092-1 0  9993,2 45397  53.0579 351.2155 0001543  90.4715 297.2808 15.41958116  5686
STARLINK-1255,45399,53.048,0.0006262,15.43032081,432.8988141410773,441.43430031614935,1 45399U 20019AR  26022.25133148  .00025435  00000+0  57468-3 0  9992,2 45399  53.0480 324.7426 0006262  78.7791 281.3918 15.43032081323248
STARLINK-1260,45404,53.1192,0.0001833,15.20994205,501.5791741548819,504.1017404907361,1 45404U 20019AW  26022.58337963  .01780238  00000+0  72285-1 0  9998,2 45404  53.1192 343.2022 0001833  97.4394 358.9375 15.20994205  5638
STARLINK-1263,45405,53.1169,0.0001864,15.2069549,502.4587470352317,505.0243113509159,1 45405U 20019AX  26022.58337963  .01681001  00000+0  69213-1 0  9994,2 45405  53.1169 343.2038 0001864  90.2636  85.2379 15.20695490  5722
STARLINK-1265,45406,53.114,0.0001839,15.19948872,504.728996375301,507.2609801205781,1 45406U 20019AY  26022.58337963  .01755822  00000+0  73581-1 0  9991,2 45406  53.1140 343.2579 0001839 100.7113   5.7882 15.19948872  5720
STARLINK-1278,45408,53.0507,0.0005624,15.45968127,424.706834883842,432.36297944502076,1 45408U 20019BA  26022.19459766  .00074113  00000+0  14904-2 0  9997,2 45408  53.0507 353.8622 0005624  16.1152 344.0032 15.45968127322747
STARLINK-1296,45412,53.1125,0.0001934,15.1971031,505.383879888067,508.04694080038826,1 45412U 20019BE  26022.58337963  .00780335  00000+0  33387-1 0  9994,2 45412  53.1125 343.0418 0001934  88.4787 116.4598 15.19710310  5835
STARLINK-1298,45413,53.0456,0.0008771,15.74531812,340.0660860601083,351.861503674465,1 45413U 20019BF  26022.58337963  .00159805  00000+0  10569-2 0  9995,2 45413  53.0456 286.8856 0008771 128.6737 287.5360 15.74531812  6006
STARLINK-1309,45414,53.0712,0.0001646,15.19140394,507.3037058325772,509.5707660710523,1 45414U 20019BG  26022.58337963  .01902887  00000+0  80986-1 0  9992,2 45414  53.0712 343.2568 0001646  76.9299 283.5523 15.19140394  5839
STARLINK-1316,45415,53.1134,0.0001504,15.19972869,504.8871687212977,506.9578938283057,1 45415U 20019BH  26022.58337963  .01700487  00000+0  71420-1 0  9998,2 45415  53.1134 343.2567 0001504  88.3902 138.0828 15.19972869  5831
STARLINK-1318,45416,53.0411,0.0004848,15.8124891,323.6571624768567,330.15837388408363,1 45416U 20019BJ  26022.58337963  .00241259  00000+0  11709-2 0  9990,2 45416  53.0411 274.1934 0004848 150.3928 268.8536 15.81248910  6023
STARLINK-1286,45417,53.052,0.0002517,15.47178696,423.2715730079717,426.69626407836677,1 45417U 20019BK  26022.34709355  .00037925  00000+0  73934-3 0  9995,2 45417  53.0520 352.7892 0002517  30.1017 330.0134 15.47178696323041
STARLINK-1308,45419,53.0563,0.0001845,15.32481514,467.14814458405,469.6745209188366,1 45419U 20019BM  26022.58337963  .00104800  00000+0  32609-2 0  9995,2 45419  53.0563  11.4856 0001845  88.6915 130.7482 15.32481514  5685
STARLINK-1329,45531,53.0553,0.0007357,15.46443649,422.13285363363684,432.14613746919076,1 45531U 20025A   26022.06193977  .00035930  00000+0  71850-3 0  9994,2 45531  53.0553 305.5202 0007357  88.4440 271.7409 15.46443649318219
STARLINK-1338,45532,53.0547,0.000518,15.45133357,427.4591313277051,434.51338302213844,1 45532U 20025B   26022.08483671  .00026645  00000+0  56044-3 0  9991,2 45532  53.0547 308.3628 0005180 106.7495 253.4080 15.45133357318170
STARLINK-1350,45535,53.0709,0.0002132,15.3479444,460.0729152427639,462.9893497344565,1 45535U 20025E   26022.05581523  .00018077  00000+0  53809-3 0  9992,2 45535  53.0709 251.9386 0002132 114.3880 245.7345 15.34794440318996
STARLINK-1362,45538,53.0551,0.0001173,15.06382766,546.4520285880444,548.0767277513633,1 45538U 20025H   26022.22430140  .00020536  00000+0  13942-2 0  9998,2 45538  53.0551 314.9278 0001173  96.1430 263.9692 15.06382766318097
STARLINK-1368,45540,53.0563,0.0001822,15.06390192,545.9798142245281,548.5034221930046,1 45540U 20025K   26022.49434576  .00007515  00000+0  52300-3 0  9991,2 45540  53.0563 313.9974 0001822  88.5198 271.6000 15.06390192318127
STARLINK-1371,45542,53.0548,0.0003538,15.40251688,442.9517223950952,447.78003303136484,1 45542U 20025M   26022.19629926  .00021086  00000+0  52463-3 0  9994,2 45542  53.0548 310.3786 0003538 102.9744 257.1655 15.40251688318150
STARLINK-1372,45543,53.0541,0.0001627,15.06372002,546.1706009330492,548.4241372767547,1 45543U 20025N   26022.03729628  .00002485  00000+0  18578-3 0  9999,2 45543  53.0541 316.0529 0001627  53.1258 306.9880 15.06372002317154
STARLINK-1373,45544,53.055,0.0003788,15.41503617,439.08757164408325,444.25425812039884,1 45544U 20025P   26022.09387658  .00032169  00000+0  76186-3 0  9990,2 45544  53.0550 311.2790 0003788 103.3965 256.7462 15.41503617318139
STARLINK-1294,45551,53.0365,0.0004091,15.79085678,330.2844467438954,335.7755235711511,1 45551U 20025W   26022.58337963  .00160169  00000+0  86754-3 0  9990,2 45551  53.0365 209.8852 0004091 245.7737  62.2171 15.79085678  6020
STARLINK-1325,45554,53.0377,0.0005872,16.01156456,267.3105530341518,275.1195520846768,1 45554U 20025Z   26021.72891338  .00708735  24350-3  12678-2 0  9997,2 45554  53.0377 201.1429 0005872 211.7008 148.3669 16.01156456319656
STARLINK-1327,45555,53.0534,0.0003605,15.44396529,430.6963599793926,435.6072992255358,1 45555U 20025AA  26022.46359935  .00024453  00000+0  52834-3 0  9991,2 45555  53.0534 288.1972 0003605 113.2434 246.8951 15.44396529318482
STARLINK-1356,45564,53.0534,8.99e-05,15.32048398,469.08601504060425,470.3172564273091,1 45564U 20025AK  26022.58337963  .00441622  00000+0  13273-1 0  9994,2 45564  53.0534 292.2445 0000899  92.5319 356.9776 15.32048398  5684
STARLINK-1357,45565,53.0576,0.000569,15.45640548,425.6230551287854,433.37014216404623,1 45565U 20025AL  26022.04909901  .00029861  00000+0  61597-3 0  9994,2 45565  53.0576 261.9824 0005690 109.5264 250.6357 15.45640548318824
STARLINK-1361,45567,53.0557,9.75e-05,15.27353937,483.0570618258562,484.3951251290846,1 45567U 20025AN  26022.58337963  .01549377  00000+0  51984-1 0  9995,2 45567  53.0557 292.6085 0000975 108.8637  55.7146 15.27353937  5806
STARLINK-1363,45568,53.047,9.21e-05,15.63483744,376.9808097087889,378.2252170192505,1 45568U 20025AP  26022.58337963  .00002661  00000+0  33948-4 0  9998,2 45568  53.0470 265.8613 0000921  63.5855  65.7505 15.63483744  5978
STARLINK-1366,45569,53.0475,0.0001094,15.63285893,377.43386975937483,378.9121503895785,1 45569U 20025AQ  26022.58337963 -.00007888  00000+0 -78700-4 0  9992,2 45569  53.0475 266.4846 0001094  93.8900  22.9903 15.63285893  5958
STARLINK-1376,45570,53.1586,0.0001537,15.29369826,476.6411991711029,478.7486819096248,1 45570U 20025AR  26022.05896214  .00011605  00000+0  41370-3 0  9997,2 45570  53.1586 294.1189 0001537  88.3973 271.7204 15.29369826318364
STARLINK-1320,45572,53.0529,0.0006892,15.57620627,389.8777399104729,399.2132054308022,1 45572U 20025AT  26022.53470907  .00051247  00000+0  68289-3 0  9993,2 45572  53.0529 211.8041 0006892 174.4797 185.6291 15.57620627319589
STARLINK-1321,45573,53.0527,0.0003934,15.40876544,440.83740223719633,446.2046827850445,1 45573U 20025AU  26022.42238903  .00039166  00000+0  94402-3 0  9992,2 45573  53.0527 278.6103 0003934 105.3471 254.7968 15.40876544318316
STARLINK-1331,45578,53.0533,0.0001604,15.15152621,519.4087108118301,521.6217984551158,1 45578U 20025AZ  26022.58337963  .02124905  00000+0  10181+0 0  9996,2 45578  53.0533 283.2310 0001604  83.0799 335.9563 15.15152621  5790
STARLINK-1333,45580,53.1551,0.0001542,15.29329731,476.7575801657322,478.87195569096184,1 45580U 20025BB  26022.44852479  .00003716  00000+0  14117-3 0  9999,2 45580  53.1551 292.5720 0001542 100.9178 259.1995 15.29329731318429
STARLINK-1335,45581,53.0532,0.0002011,15.06396472,545.8296810017937,548.6150605407174,1 45581U 20025BC  26022.41971607  .00016061  00000+0  10948-2 0  9996,2 45581  53.0532 284.3347 0002011  91.5598 268.5621 15.06396472318538
STARLINK-1337,45582,53.0529,0.0001288,15.21530322,500.3379416246453,502.11006501910015,1 45582U 20025BD  26022.58337963  .00114693  00000+0  49644-2 0  9991,2 45582  53.0529 282.8150 0001288 106.0668 347.9218 15.21530322  5803
STARLINK-1347,45586,53.0499,0.00057,15.44463596,429.07232304111585,436.83696751673324,1 45586U 20025BH  26022.36547696  .00024372  00000+0  52528-3 0  9997,2 45586  53.0499 251.5528 0005700 118.1541 242.0041 15.44463596318980
STARLINK-1364,45589,53.0525,8.51e-05,15.27816074,481.7584697922348,482.9261233685129,1 45589U 20025BL  26022.58337963  .01400670  00000+0  46767-1 0  9994,2 45589  53.0525 282.5432 0000851 119.5646  93.9406 15.27816074  5800
STARLINK-1365,45590,53.0554,0.0001229,15.33388547,464.87003510426894,466.55225297807465,1 45590U 20025BM  26022.58337963  .01623069  00000+0  45029-1 0  9995,2 45590  53.0554 312.2697 0001229  72.3873 194.0361 15.33388547  5737
STARLINK-1443,45660,53.0533,0.0001854,15.06369785,546.0201873175893,548.58814090124,1 45660U 20035D   26021.98200563 -.00004205  00000+0 -26378-3 0  9996,2 45660  53.0533 276.2984 0001854  88.9951 271.1251 15.06369785311697
STARLINK-1446,45663,53.0237,0.0005634,15.40624023,440.42269744283294,448.11018163850804,1 45663U 20035G   26022.26948412  .00021219  00000+0  52129-3 0  9998,2 45663  53.0237 219.5225 0005634 122.4925 237.6624 15.40624023312514
STARLINK-1448,45665,53.0579,0.0001164,15.27255113,483.22334172717456,484.8208523649664,1 45665U 20035J   26022.58337963  .01009579  00000+0  34294-1 0  9995,2 45665  53.0579 272.6357 0001164  92.4233  46.8434 15.27255113  5684
